H1 CPF 01  gfz 2022 04 13 12  6032 tandemx   
H2 1003001  6202 36605    2022 04 13 12 59 42 2022 04 18 00 00 42   120 1 1  0 0 0
H9
10 0 59682  63342.000000  0     711356.711    974025.157  -6789227.922
10 0 59682  63462.000000  0    1612130.543   1038719.653  -6623416.019
10 0 59682  63582.000000  0    2485823.188   1069897.943  -6342073.124
10 0 59682  63702.000000  0    3316691.555   1067620.865  -5950043.259
10 0 59682  63822.000000  0    4089714.813   1032794.358  -5454087.754
10 0 59682  63942.000000  0    4790865.067    967140.601  -4862780.278
10 0 59682  64062.000000  0    5407366.229    873151.282  -4186370.390
10 0 59682  64182.000000  0    5927934.245    754023.183  -3436615.837
10 0 59682  64302.000000  0    6342993.495    613576.910  -2626586.592
10 0 59682  64422.000000  0    6644865.635    456160.896  -1770442.709
10 0 59682  64542.000000  0    6827925.186    286541.948   -883187.185
10 0 59682  64662.000000  0    6888714.847    109785.087     19600.247
10 0 59682  64782.000000  0    6826019.532    -68873.715    922041.841
10 0 59682  64902.000000  0    6640896.493   -244160.196   1808249.088
10 0 59682  65022.000000  0    6336659.282   -410895.349   2662611.892
10 0 59682  65142.000000  0    5918814.937   -564126.829   3470082.756
10 0 59682  65262.000000  0    5394956.894   -699254.282   4216447.647
10 0 59682  65382.000000  0    4774619.666   -812145.701   4888580.356
10 0 59682  65502.000000  0    4069094.454   -899242.864   5474675.110
10 0 59682  65622.000000  0    3291213.070   -957650.947   5964451.393
10 0 59682  65742.000000  0    2455106.250   -985212.868   6349329.984
10 0 59682  65862.000000  0    1575941.022   -980566.182   6622577.505
10 0 59682  65982.000000  0     669641.236   -943181.787   6779419.597
10 0 59682  66102.000000  0    -247403.804   -873382.873   6817118.559
10 0 59682  66222.000000  0   -1158635.561   -772344.698   6735016.846
10 0 59682  66342.000000  0   -2047623.919   -642074.922   6534547.356
10 0 59682  66462.000000  0   -2898361.904   -485374.403   6219209.933
10 0 59682  66582.000000  0   -3695553.970   -305779.367   5794515.342
10 0 59682  66702.000000  0   -4424894.380   -107485.949   5267895.412
10 0 59682  66822.000000  0   -5073330.042    104741.781   4648578.886
10 0 59682  66942.000000  0   -5629301.965    325678.237   3947434.395
10 0 59682  67062.000000  0   -6082960.166    549755.863   3176782.619
10 0 59682  67182.000000  0   -6426347.890    771195.004   2350181.478
10 0 59682  67302.000000  0   -6653550.948    984141.296   1482185.639
10 0 59682  67422.000000  0   -6760807.877   1182806.646    588085.462
10 0 59682  67542.000000  0   -6746577.379   1361610.924   -316370.382
10 0 59682  67662.000000  0   -6611559.781   1515320.354  -1215261.764
10 0 59682  67782.000000  0   -6358673.084   1639178.430  -2092785.585
10 0 59682  67902.000000  0   -5992986.172   1729027.708  -2933540.859
10 0 59682  68022.000000  0   -5521608.223   1781418.385  -3722805.684
10 0 59682  68142.000000  0   -4953538.093   1793699.910  -4446796.897
10 0 59682  68262.000000  0   -4299480.015   1764095.006  -5092907.923
10 0 59682  68382.000000  0   -3571630.487   1691754.411  -5649921.318
10 0 59682  68502.000000  0   -2783442.914   1576791.699  -6108193.627
10 0 59682  68622.000000  0   -1949374.244   1420297.356  -6459811.977
10 0 59682  68742.000000  0   -1084617.139   1224332.774  -6698718.947
10 0 59682  68862.000000  0    -204825.648    991903.660  -6820805.118
10 0 59682  68982.000000  0     674161.726    726914.572  -6823971.194
10 0 59682  69102.000000  0    1536599.369    434104.812  -6708162.259
10 0 59682  69222.000000  0    2367111.346    118965.424  -6475369.019
10 0 59682  69342.000000  0    3150959.365   -212360.423  -6129597.134
10 0 59682  69462.000000  0    3874301.253   -553192.834  -5676805.235
10 0 59682  69582.000000  0    4524433.422   -896444.718  -5124811.916
10 0 59682  69702.000000  0    5090017.591  -1234763.989  -4483173.561
10 0 59682  69822.000000  0    5561285.938  -1560686.028  -3763029.756
10 0 59682  69942.000000  0    5930219.538  -1866792.942  -2976919.105
10 0 59682  70062.000000  0    6190696.370  -2145876.909  -2138567.189
10 0 59682  70182.000000  0    6338604.453  -2391103.828  -1262649.380
10 0 59682  70302.000000  0    6371916.811  -2596172.683   -364533.115
10 0 59682  70422.000000  0    6290726.108  -2755467.160    539996.024
10 0 59682  70542.000000  0    6097237.168  -2864195.011   1435018.852
10 0 59682  70662.000000  0    5795716.635  -2918511.579   2304772.397
10 0 59682  70782.000000  0    5392399.629  -2915624.310   3133936.343
10 0 59682  70902.000000  0    4895357.523  -2853874.753   3907910.923
10 0 59682  71022.000000  0    4314330.059  -2732795.860   4613078.003
10 0 59682  71142.000000  0    3660528.616  -2553145.648   5237043.401
10 0 59682  71262.000000  0    2946410.735  -2316914.885   5768855.393
10 0 59682  71382.000000  0    2185434.956  -2027307.964   6199192.895
10 0 59682  71502.000000  0    1391801.722  -1688699.448   6520523.629
10 0 59682  71622.000000  0     580184.502  -1306566.814   6727230.196
10 0 59682  71742.000000  0    -234543.624   -887400.290   6815702.339
10 0 59682  71862.000000  0   -1037582.315   -438591.520   6784395.281
10 0 59682  71982.000000  0   -1814471.610     31696.615   6633854.720
10 0 59682  72102.000000  0   -2551351.262    514678.098   6366708.023
10 0 59682  72222.000000  0   -3235207.950   1001107.087   5987621.699
10 0 59682  72342.000000  0   -3854106.952   1481453.781   5503225.450
10 0 59682  72462.000000  0   -4397405.110   1946090.336   4922002.829
10 0 59682  72582.000000  0   -4855940.859   2385483.900   4254148.297
10 0 59682  72702.000000  0   -5222195.781   2790392.937   3511391.820
10 0 59682  72822.000000  0   -5490424.894   3152061.670   2706794.819
10 0 59682  72942.000000  0   -5656753.394   3462409.239   1854520.613
10 0 59682  73062.000000  0   -5719237.596   3714209.711    969581.545
10 0 59682  73182.000000  0   -5677885.559   3901256.295     67566.987
10 0 59682  73302.000000  0   -5534638.408   4018506.017   -835639.070
10 0 59682  73422.000000  0   -5293313.182   4062201.976  -1724146.654
10 0 59682  73542.000000  0   -4959507.228   4029969.496  -2582349.297
10 0 59682  73662.000000  0   -4540466.005   3920882.545  -3395205.056
10 0 59682  73782.000000  0   -4044920.127   3735500.086  -4148503.354
10 0 59682  73902.000000  0   -3482896.449   3475872.469  -4829111.863
10 0 59682  74022.000000  0   -2865508.255   3145518.168  -5425199.831
10 0 59682  74142.000000  0   -2204731.771   2749372.711  -5926434.797
10 0 59682  74262.000000  0   -1513170.871   2293710.811  -6324152.510
10 0 59682  74382.000000  0    -803815.571   1786042.478  -6611494.633
10 0 59682  74502.000000  0     -89800.788   1234987.743  -6783515.434
10 0 59682  74622.000000  0     615831.696    650130.745  -6837257.394
10 0 59682  74742.000000  0    1300365.364     41856.448  -6771797.957
10 0 59682  74862.000000  0    1951633.762   -578830.205  -6588263.215
10 0 59682  74982.000000  0    2558231.034  -1200498.091  -6289809.845
10 0 59682  75102.000000  0    3109708.581  -1811495.013  -5881576.975
10 0 59682  75222.000000  0    3596753.830  -2400160.582  -5370607.416
10 0 59682  75342.000000  0    4011351.034  -2955046.981  -4765738.488
10 0 59682  75462.000000  0    4346917.436  -3465141.845  -4077458.794
10 0 59682  75582.000000  0    4598412.776  -3920087.305  -3317736.561
10 0 59682  75702.000000  0    4762422.294  -4310393.038  -2499820.257
10 0 59682  75822.000000  0    4837208.975  -4627637.808  -1638011.913
10 0 59682  75942.000000  0    4822733.410  -4864654.770   -747417.874
10 0 59682  76062.000000  0    4720638.744  -5015695.261    156319.782
10 0 59682  76182.000000  0    4534201.255  -5076565.424   1057304.390
10 0 59682  76302.000000  0    4268248.280  -5044732.616   1939673.179
10 0 59682  76422.000000  0    3929043.154  -4919397.676   2787885.495
10 0 59682  76542.000000  0    3524142.800  -4701533.025   3587004.118
10 0 59682  76662.000000  0    3062230.039  -4393884.095   4322964.973
10 0 59682  76782.000000  0    2552925.715  -4000934.419   4982828.205
10 0 59682  76902.000000  0    2006585.692  -3528836.094   5555006.225
10 0 59682  77022.000000  0    1434087.193  -2985307.756   6029465.605
10 0 59682  77142.000000  0     846609.215  -2379501.593   6397898.180
10 0 59682  77262.000000  0     255412.498  -1721844.525   6653860.217
10 0 59682  77382.000000  0    -328376.649  -1023855.764   6792878.716
10 0 59682  77502.000000  0    -893974.692   -297943.034   6812525.462
10 0 59682  77622.000000  0   -1431139.176    442818.544   6712456.529
10 0 59682  77742.000000  0   -1930353.720   1184921.567   6494417.790
10 0 59682  77862.000000  0   -2382996.583   1914671.786   6162216.327
10 0 59682  77982.000000  0   -2781490.487   2618440.288   5721658.117
10 0 59682  78102.000000  0   -3119431.326   3282919.196   5180452.810
10 0 59682  78222.000000  0   -3391694.626   3895375.956   4548085.125
10 0 59682  78342.000000  0   -3594516.497   4443902.155   3835654.000
10 0 59682  78462.000000  0   -3725547.351   4917651.371   3055680.979
10 0 59682  78582.000000  0   -3783876.888   5307060.686   2221890.241
10 0 59682  78702.000000  0   -3770029.092   5604049.017   1348963.903
10 0 59682  78822.000000  0   -3685927.803   5802188.339    452279.223
10 0 59682  78942.000000  0   -3534834.677   5896845.363   -452369.170
10 0 59682  79062.000000  0   -3321258.453   5885286.724  -1349057.918
10 0 59682  79182.000000  0   -3050838.779   5766744.506  -2222025.762
10 0 59682  79302.000000  0   -2730205.576   5542440.345  -3055958.437
10 0 59682  79422.000000  0   -2366821.890   5215570.728  -3836260.454
10 0 59682  79542.000000  0   -1968813.836   4791253.192  -4549311.710
10 0 59682  79662.000000  0   -1544790.606   4276434.997  -5182700.833
10 0 59682  79782.000000  0   -1103661.035   3679770.195  -5725433.565
99
